<?xml version="1.0" encoding="UTF-8"?>
<gpx version="1.1" creator="MinimalGpsLogger" xmlns="http://www.topografix.com/GPX/1/1">
  <trk>
    <name>Track gps_20260425_121114_part001</name>
    <trkseg>
      <trkpt lat="51.38664816666667" lon="21.1589855">
        <ele>197.0</ele>
        <time>2026-04-25T10:12:21Z</time>
      </trkpt>
      <trkpt lat="51.38664816666667" lon="21.1589855">
        <ele>197.0</ele>
        <time>2026-04-25T10:12:21Z</time>
      </trkpt>
      <trkpt lat="51.38664816666667" lon="21.1589855">
        <ele>197.0</ele>
        <time>2026-04-25T10:12:21Z</time>
      </trkpt>
      <trkpt lat="51.38664816666667" lon="21.1589855">
        <ele>197.0</ele>
        <time>2026-04-25T10:12:21Z</time>
      </trkpt>
      <trkpt lat="51.38664816666667" lon="21.1589855">
        <ele>197.0</ele>
        <time>2026-04-25T10:12:21Z</time>
      </trkpt>
      <trkpt lat="51.38664816666667" lon="21.1589855">
        <ele>197.0</ele>
        <time>2026-04-25T10:12:21Z</time>
      </trkpt>
      <trkpt lat="51.38664816666667" lon="21.1589855">
        <ele>197.0</ele>
        <time>2026-04-25T10:12:21Z</time>
      </trkpt>
      <trkpt lat="51.38664816666667" lon="21.1589855">
        <ele>197.0</ele>
        <time>2026-04-25T10:12:21Z</time>
      </trkpt>
      <trkpt lat="51.38664816666667" lon="21.1589855">
        <ele>197.0</ele>
        <time>2026-04-25T10:12:21Z</time>
      </trkpt>
      <trkpt lat="51.38664816666667" lon="21.1589855">
        <ele>197.0</ele>
        <time>2026-04-25T10:12:21Z</time>
      </trkpt>
      <trkpt lat="51.38664816666667" lon="21.1589855">
        <ele>197.0</ele>
        <time>2026-04-25T10:12:21Z</time>
      </trkpt>
      <trkpt lat="51.38664816666667" lon="21.1589855">
        <ele>197.0</ele>
        <time>2026-04-25T10:12:21Z</time>
      </trkpt>
      <trkpt lat="51.38664816666667" lon="21.1589855">
        <ele>197.0</ele>
        <time>2026-04-25T10:12:21Z</time>
      </trkpt>
      <trkpt lat="51.38664816666667" lon="21.1589855">
        <ele>197.0</ele>
        <time>2026-04-25T10:12:21Z</time>
      </trkpt>
      <trkpt lat="51.38664816666667" lon="21.1589855">
        <ele>197.0</ele>
        <time>2026-04-25T10:12:21Z</time>
      </trkpt>
      <trkpt lat="51.38664816666667" lon="21.1589855">
        <ele>197.0</ele>
        <time>2026-04-25T10:12:21Z</time>
      </trkpt>
      <trkpt lat="51.38664816666667" lon="21.1589855">
        <ele>197.0</ele>
        <time>2026-04-25T10:12:21Z</time>
      </trkpt>
      <trkpt lat="51.38664816666667" lon="21.1589855">
        <ele>197.0</ele>
        <time>2026-04-25T10:12:21Z</time>
      </trkpt>
      <trkpt lat="51.38664816666667" lon="21.1589855">
        <ele>197.0</ele>
        <time>2026-04-25T10:12:21Z</time>
      </trkpt>
      <trkpt lat="51.38664816666667" lon="21.1589855">
        <ele>197.0</ele>
        <time>2026-04-25T10:12:21Z</time>
      </trkpt>
      <trkpt lat="51.38664816666667" lon="21.1589855">
        <ele>197.0</ele>
        <time>2026-04-25T10:12:21Z</time>
      </trkpt>
      <trkpt lat="51.38664816666667" lon="21.1589855">
        <ele>197.0</ele>
        <time>2026-04-25T10:12:21Z</time>
      </trkpt>
      <trkpt lat="51.386647833333335" lon="21.158985166666668">
        <ele>197.0</ele>
        <time>2026-04-25T10:12:21Z</time>
      </trkpt>
      <trkpt lat="51.386647833333335" lon="21.158985166666668">
        <ele>197.0</ele>
        <time>2026-04-25T10:12:21Z</time>
      </trkpt>
      <trkpt lat="51.386647833333335" lon="21.158985166666668">
        <ele>197.0</ele>
        <time>2026-04-25T10:12:21Z</time>
      </trkpt>
      <trkpt lat="51.386647833333335" lon="21.158985166666668">
        <ele>197.0</ele>
        <time>2026-04-25T10:12:21Z</time>
      </trkpt>
      <trkpt lat="51.386647833333335" lon="21.158985166666668">
        <ele>197.0</ele>
        <time>2026-04-25T10:12:21Z</time>
      </trkpt>
      <trkpt lat="51.386647833333335" lon="21.158985166666668">
        <ele>197.0</ele>
        <time>2026-04-25T10:12:21Z</time>
      </trkpt>
      <trkpt lat="51.386647833333335" lon="21.158985166666668">
        <ele>197.0</ele>
        <time>2026-04-25T10:12:21Z</time>
      </trkpt>
      <trkpt lat="51.386647833333335" lon="21.158985166666668">
        <ele>197.0</ele>
        <time>2026-04-25T10:12:21Z</time>
      </trkpt>
      <trkpt lat="51.386647833333335" lon="21.158985166666668">
        <ele>197.0</ele>
        <time>2026-04-25T10:12:21Z</time>
      </trkpt>
      <trkpt lat="51.386647833333335" lon="21.158985166666668">
        <ele>197.0</ele>
        <time>2026-04-25T10:12:21Z</time>
      </trkpt>
      <trkpt lat="51.386647833333335" lon="21.158985166666668">
        <ele>197.0</ele>
        <time>2026-04-25T10:12:21Z</time>
      </trkpt>
      <trkpt lat="51.386647833333335" lon="21.158985166666668">
        <ele>197.0</ele>
        <time>2026-04-25T10:12:21Z</time>
      </trkpt>
      <trkpt lat="51.386647833333335" lon="21.158985166666668">
        <ele>197.0</ele>
        <time>2026-04-25T10:12:21Z</time>
      </trkpt>
      <trkpt lat="51.386647833333335" lon="21.158985166666668">
        <ele>197.0</ele>
        <time>2026-04-25T10:12:21Z</time>
      </trkpt>
      <trkpt lat="51.386647833333335" lon="21.158985166666668">
        <ele>197.0</ele>
        <time>2026-04-25T10:12:21Z</time>
      </trkpt>
      <trkpt lat="51.386647833333335" lon="21.158985166666668">
        <ele>197.0</ele>
        <time>2026-04-25T10:12:21Z</time>
      </trkpt>
      <trkpt lat="51.386647833333335" lon="21.158985166666668">
        <ele>197.0</ele>
        <time>2026-04-25T10:12:21Z</time>
      </trkpt>
      <trkpt lat="51.386647833333335" lon="21.158985166666668">
        <ele>197.0</ele>
        <time>2026-04-25T10:12:21Z</time>
      </trkpt>
      <trkpt lat="51.386647833333335" lon="21.158985166666668">
        <ele>197.0</ele>
        <time>2026-04-25T10:12:21Z</time>
      </trkpt>
      <trkpt lat="51.386647833333335" lon="21.158985166666668">
        <ele>197.0</ele>
        <time>2026-04-25T10:12:21Z</time>
      </trkpt>
      <trkpt lat="51.386647833333335" lon="21.158985166666668">
        <ele>197.0</ele>
        <time>2026-04-25T10:12:21Z</time>
      </trkpt>
      <trkpt lat="51.386647833333335" lon="21.158985166666668">
        <ele>197.0</ele>
        <time>2026-04-25T10:12:21Z</time>
      </trkpt>
      <trkpt lat="51.386647833333335" lon="21.158985166666668">
        <ele>197.0</ele>
        <time>2026-04-25T10:12:21Z</time>
      </trkpt>
      <trkpt lat="51.386647833333335" lon="21.158985166666668">
        <ele>197.0</ele>
        <time>2026-04-25T10:12:21Z</time>
      </trkpt>
      <trkpt lat="51.38664766666667" lon="21.158984333333333">
        <ele>197.0</ele>
        <time>2026-04-25T10:12:21Z</time>
      </trkpt>
      <trkpt lat="51.38664766666667" lon="21.158984333333333">
        <ele>197.0</ele>
        <time>2026-04-25T10:12:21Z</time>
      </trkpt>
      <trkpt lat="51.38664766666667" lon="21.158984333333333">
        <ele>196.9</ele>
        <time>2026-04-25T10:12:21Z</time>
      </trkpt>
      <trkpt lat="51.38664766666667" lon="21.158984333333333">
        <ele>196.9</ele>
        <time>2026-04-25T10:12:21Z</time>
      </trkpt>
      <trkpt lat="51.38664766666667" lon="21.158984333333333">
        <ele>196.9</ele>
        <time>2026-04-25T10:12:21Z</time>
      </trkpt>
      <trkpt lat="51.38664766666667" lon="21.158984333333333">
        <ele>196.9</ele>
        <time>2026-04-25T10:12:21Z</time>
      </trkpt>
      <trkpt lat="51.38664766666667" lon="21.158984333333333">
        <ele>196.9</ele>
        <time>2026-04-25T10:12:21Z</time>
      </trkpt>
      <trkpt lat="51.38664766666667" lon="21.158984333333333">
        <ele>196.9</ele>
        <time>2026-04-25T10:12:21Z</time>
      </trkpt>
      <trkpt lat="51.38664766666667" lon="21.158984333333333">
        <ele>196.9</ele>
        <time>2026-04-25T10:12:21Z</time>
      </trkpt>
      <trkpt lat="51.38664766666667" lon="21.158984333333333">
        <ele>196.9</ele>
        <time>2026-04-25T10:12:21Z</time>
      </trkpt>
      <trkpt lat="51.38664766666667" lon="21.158984333333333">
        <ele>196.9</ele>
        <time>2026-04-25T10:12:21Z</time>
      </trkpt>
      <trkpt lat="51.38664766666667" lon="21.158984333333333">
        <ele>196.9</ele>
        <time>2026-04-25T10:12:21Z</time>
      </trkpt>
      <trkpt lat="51.38664766666667" lon="21.158984333333333">
        <ele>196.9</ele>
        <time>2026-04-25T10:12:21Z</time>
      </trkpt>
      <trkpt lat="51.38664766666667" lon="21.158984333333333">
        <ele>196.9</ele>
        <time>2026-04-25T10:12:21Z</time>
      </trkpt>
      <trkpt lat="51.38664766666667" lon="21.158984333333333">
        <ele>196.9</ele>
        <time>2026-04-25T10:12:21Z</time>
      </trkpt>
      <trkpt lat="51.38664766666667" lon="21.158984333333333">
        <ele>196.9</ele>
        <time>2026-04-25T10:12:21Z</time>
      </trkpt>
      <trkpt lat="51.38664766666667" lon="21.158984333333333">
        <ele>196.9</ele>
        <time>2026-04-25T10:12:21Z</time>
      </trkpt>
      <trkpt lat="51.38664766666667" lon="21.158984333333333">
        <ele>196.9</ele>
        <time>2026-04-25T10:12:21Z</time>
      </trkpt>
      <trkpt lat="51.38664766666667" lon="21.158984333333333">
        <ele>196.9</ele>
        <time>2026-04-25T10:12:21Z</time>
      </trkpt>
      <trkpt lat="51.38664766666667" lon="21.158984333333333">
        <ele>196.9</ele>
        <time>2026-04-25T10:12:21Z</time>
      </trkpt>
      <trkpt lat="51.38664766666667" lon="21.158984333333333">
        <ele>196.9</ele>
        <time>2026-04-25T10:12:21Z</time>
      </trkpt>
      <trkpt lat="51.38664766666667" lon="21.158984333333333">
        <ele>196.9</ele>
        <time>2026-04-25T10:12:21Z</time>
      </trkpt>
      <trkpt lat="51.38664766666667" lon="21.158984333333333">
        <ele>196.9</ele>
        <time>2026-04-25T10:12:21Z</time>
      </trkpt>
      <trkpt lat="51.38664766666667" lon="21.158984333333333">
        <ele>196.9</ele>
        <time>2026-04-25T10:12:21Z</time>
      </trkpt>
      <trkpt lat="51.38664766666667" lon="21.158983166666665">
        <ele>196.9</ele>
        <time>2026-04-25T10:12:21Z</time>
      </trkpt>
      <trkpt lat="51.38664766666667" lon="21.158983166666665">
        <ele>196.9</ele>
        <time>2026-04-25T10:12:21Z</time>
      </trkpt>
      <trkpt lat="51.38664766666667" lon="21.158983166666665">
        <ele>196.9</ele>
        <time>2026-04-25T10:12:21Z</time>
      </trkpt>
      <trkpt lat="51.38664766666667" lon="21.158983166666665">
        <ele>196.9</ele>
        <time>2026-04-25T10:12:21Z</time>
      </trkpt>
      <trkpt lat="51.38664766666667" lon="21.158983166666665">
        <ele>196.9</ele>
        <time>2026-04-25T10:12:21Z</time>
      </trkpt>
      <trkpt lat="51.38664766666667" lon="21.158983166666665">
        <ele>196.9</ele>
        <time>2026-04-25T10:12:21Z</time>
      </trkpt>
      <trkpt lat="51.38664766666667" lon="21.158983166666665">
        <ele>196.9</ele>
        <time>2026-04-25T10:12:21Z</time>
      </trkpt>
      <trkpt lat="51.38664766666667" lon="21.158983166666665">
        <ele>196.9</ele>
        <time>2026-04-25T10:12:21Z</time>
      </trkpt>
      <trkpt lat="51.38664766666667" lon="21.158983166666665">
        <ele>196.9</ele>
        <time>2026-04-25T10:12:21Z</time>
      </trkpt>
      <trkpt lat="51.38664766666667" lon="21.158983166666665">
        <ele>196.9</ele>
        <time>2026-04-25T10:12:21Z</time>
      </trkpt>
      <trkpt lat="51.38664766666667" lon="21.158983166666665">
        <ele>196.9</ele>
        <time>2026-04-25T10:12:21Z</time>
      </trkpt>
      <trkpt lat="51.38664766666667" lon="21.158983166666665">
        <ele>196.9</ele>
        <time>2026-04-25T10:12:21Z</time>
      </trkpt>
      <trkpt lat="51.38664766666667" lon="21.158983166666665">
        <ele>196.9</ele>
        <time>2026-04-25T10:12:21Z</time>
      </trkpt>
      <trkpt lat="51.38664766666667" lon="21.158983166666665">
        <ele>196.9</ele>
        <time>2026-04-25T10:12:21Z</time>
      </trkpt>
      <trkpt lat="51.38664766666667" lon="21.158983166666665">
        <ele>196.9</ele>
        <time>2026-04-25T10:12:21Z</time>
      </trkpt>
      <trkpt lat="51.38664766666667" lon="21.158983166666665">
        <ele>196.9</ele>
        <time>2026-04-25T10:12:21Z</time>
      </trkpt>
      <trkpt lat="51.38664766666667" lon="21.158983166666665">
        <ele>196.9</ele>
        <time>2026-04-25T10:12:21Z</time>
      </trkpt>
      <trkpt lat="51.38664766666667" lon="21.158983166666665">
        <ele>196.9</ele>
        <time>2026-04-25T10:12:21Z</time>
      </trkpt>
      <trkpt lat="51.38664766666667" lon="21.158983166666665">
        <ele>196.9</ele>
        <time>2026-04-25T10:12:21Z</time>
      </trkpt>
      <trkpt lat="51.38664766666667" lon="21.158983166666665">
        <ele>196.9</ele>
        <time>2026-04-25T10:12:21Z</time>
      </trkpt>
      <trkpt lat="51.38664766666667" lon="21.158983166666665">
        <ele>196.9</ele>
        <time>2026-04-25T10:12:21Z</time>
      </trkpt>
      <trkpt lat="51.38664766666667" lon="21.158983166666665">
        <ele>196.9</ele>
        <time>2026-04-25T10:12:21Z</time>
      </trkpt>
      <trkpt lat="51.38664766666667" lon="21.158983166666665">
        <ele>196.9</ele>
        <time>2026-04-25T10:12:21Z</time>
      </trkpt>
      <trkpt lat="51.38664766666667" lon="21.158983166666665">
        <ele>196.9</ele>
        <time>2026-04-25T10:12:21Z</time>
      </trkpt>
      <trkpt lat="51.386647333333336" lon="21.158982">
        <ele>196.9</ele>
        <time>2026-04-25T10:12:21Z</time>
      </trkpt>
      <trkpt lat="51.386647333333336" lon="21.158982">
        <ele>196.9</ele>
        <time>2026-04-25T10:12:21Z</time>
      </trkpt>
      <trkpt lat="51.386647333333336" lon="21.158982">
        <ele>196.9</ele>
        <time>2026-04-25T10:12:21Z</time>
      </trkpt>
      <trkpt lat="51.386647333333336" lon="21.158982">
        <ele>196.9</ele>
        <time>2026-04-25T10:12:21Z</time>
      </trkpt>
      <trkpt lat="51.386647333333336" lon="21.158982">
        <ele>196.9</ele>
        <time>2026-04-25T10:12:21Z</time>
      </trkpt>
      <trkpt lat="51.386647333333336" lon="21.158982">
        <ele>196.9</ele>
        <time>2026-04-25T10:12:21Z</time>
      </trkpt>
      <trkpt lat="51.386647333333336" lon="21.158982">
        <ele>196.9</ele>
        <time>2026-04-25T10:12:21Z</time>
      </trkpt>
      <trkpt lat="51.386647333333336" lon="21.158982">
        <ele>196.9</ele>
        <time>2026-04-25T10:12:21Z</time>
      </trkpt>
      <trkpt lat="51.386647333333336" lon="21.158982">
        <ele>196.9</ele>
        <time>2026-04-25T10:12:21Z</time>
      </trkpt>
      <trkpt lat="51.386647333333336" lon="21.158982">
        <ele>196.9</ele>
        <time>2026-04-25T10:12:21Z</time>
      </trkpt>
      <trkpt lat="51.38664716666667" lon="21.158981">
        <ele>196.9</ele>
        <time>2026-04-25T10:12:21Z</time>
      </trkpt>
      <trkpt lat="51.38664716666667" lon="21.158981">
        <ele>196.9</ele>
        <time>2026-04-25T10:12:21Z</time>
      </trkpt>
      <trkpt lat="51.38664716666667" lon="21.158981">
        <ele>196.8</ele>
        <time>2026-04-25T10:12:21Z</time>
      </trkpt>
      <trkpt lat="51.38664716666667" lon="21.158981">
        <ele>196.8</ele>
        <time>2026-04-25T10:12:21Z</time>
      </trkpt>
      <trkpt lat="51.38664716666667" lon="21.158981">
        <ele>196.8</ele>
        <time>2026-04-25T10:12:21Z</time>
      </trkpt>
      <trkpt lat="51.38664716666667" lon="21.158981">
        <ele>196.8</ele>
        <time>2026-04-25T10:12:21Z</time>
      </trkpt>
      <trkpt lat="51.38664716666667" lon="21.158981">
        <ele>196.8</ele>
        <time>2026-04-25T10:12:21Z</time>
      </trkpt>
      <trkpt lat="51.38664716666667" lon="21.158981">
        <ele>196.8</ele>
        <time>2026-04-25T10:12:21Z</time>
      </trkpt>
      <trkpt lat="51.38664716666667" lon="21.158981">
        <ele>196.8</ele>
        <time>2026-04-25T10:12:21Z</time>
      </trkpt>
      <trkpt lat="51.38664716666667" lon="21.158981">
        <ele>196.8</ele>
        <time>2026-04-25T10:12:21Z</time>
      </trkpt>
      <trkpt lat="51.38664716666667" lon="21.158981">
        <ele>196.8</ele>
        <time>2026-04-25T10:12:21Z</time>
      </trkpt>
      <trkpt lat="51.38664716666667" lon="21.158981">
        <ele>196.8</ele>
        <time>2026-04-25T10:12:21Z</time>
      </trkpt>
      <trkpt lat="51.38664716666667" lon="21.158981">
        <ele>196.8</ele>
        <time>2026-04-25T10:12:21Z</time>
      </trkpt>
      <trkpt lat="51.38664716666667" lon="21.158981">
        <ele>196.8</ele>
        <time>2026-04-25T10:12:21Z</time>
      </trkpt>
      <trkpt lat="51.38664716666667" lon="21.158981">
        <ele>196.8</ele>
        <time>2026-04-25T10:12:21Z</time>
      </trkpt>
      <trkpt lat="51.38664716666667" lon="21.158981">
        <ele>196.8</ele>
        <time>2026-04-25T10:12:21Z</time>
      </trkpt>
      <trkpt lat="51.38664716666667" lon="21.158981">
        <ele>196.8</ele>
        <time>2026-04-25T10:12:21Z</time>
      </trkpt>
      <trkpt lat="51.38664716666667" lon="21.158981">
        <ele>196.8</ele>
        <time>2026-04-25T10:12:21Z</time>
      </trkpt>
      <trkpt lat="51.38664716666667" lon="21.158981">
        <ele>196.8</ele>
        <time>2026-04-25T10:12:21Z</time>
      </trkpt>
      <trkpt lat="51.38664716666667" lon="21.158981">
        <ele>196.8</ele>
        <time>2026-04-25T10:12:21Z</time>
      </trkpt>
      <trkpt lat="51.38664716666667" lon="21.158981">
        <ele>196.8</ele>
        <time>2026-04-25T10:12:21Z</time>
      </trkpt>
      <trkpt lat="51.38664716666667" lon="21.158981">
        <ele>196.8</ele>
        <time>2026-04-25T10:12:21Z</time>
      </trkpt>
      <trkpt lat="51.386647" lon="21.158980166666666">
        <ele>196.8</ele>
        <time>2026-04-25T10:12:21Z</time>
      </trkpt>
      <trkpt lat="51.386647" lon="21.158980166666666">
        <ele>196.8</ele>
        <time>2026-04-25T10:12:21Z</time>
      </trkpt>
      <trkpt lat="51.386647" lon="21.158980166666666">
        <ele>196.7</ele>
        <time>2026-04-25T10:12:21Z</time>
      </trkpt>
      <trkpt lat="51.386647" lon="21.158980166666666">
        <ele>196.7</ele>
        <time>2026-04-25T10:12:21Z</time>
      </trkpt>
      <trkpt lat="51.386647" lon="21.158980166666666">
        <ele>196.7</ele>
        <time>2026-04-25T10:12:21Z</time>
      </trkpt>
      <trkpt lat="51.386647" lon="21.158980166666666">
        <ele>196.7</ele>
        <time>2026-04-25T10:12:21Z</time>
      </trkpt>
      <trkpt lat="51.386647" lon="21.158980166666666">
        <ele>196.7</ele>
        <time>2026-04-25T10:12:21Z</time>
      </trkpt>
      <trkpt lat="51.386647" lon="21.158980166666666">
        <ele>196.7</ele>
        <time>2026-04-25T10:12:21Z</time>
      </trkpt>
      <trkpt lat="51.386647" lon="21.158980166666666">
        <ele>196.7</ele>
        <time>2026-04-25T10:12:21Z</time>
      </trkpt>
      <trkpt lat="51.386647" lon="21.158980166666666">
        <ele>196.7</ele>
        <time>2026-04-25T10:12:21Z</time>
      </trkpt>
      <trkpt lat="51.386647" lon="21.158980166666666">
        <ele>196.7</ele>
        <time>2026-04-25T10:12:21Z</time>
      </trkpt>
      <trkpt lat="51.386647" lon="21.158980166666666">
        <ele>196.7</ele>
        <time>2026-04-25T10:12:21Z</time>
      </trkpt>
      <trkpt lat="51.386647" lon="21.158980166666666">
        <ele>196.7</ele>
        <time>2026-04-25T10:12:21Z</time>
      </trkpt>
      <trkpt lat="51.386647" lon="21.158980166666666">
        <ele>196.7</ele>
        <time>2026-04-25T10:12:21Z</time>
      </trkpt>
      <trkpt lat="51.386647" lon="21.158980166666666">
        <ele>196.7</ele>
        <time>2026-04-25T10:12:21Z</time>
      </trkpt>
      <trkpt lat="51.386647" lon="21.158980166666666">
        <ele>196.7</ele>
        <time>2026-04-25T10:12:21Z</time>
      </trkpt>
      <trkpt lat="51.386647" lon="21.158980166666666">
        <ele>196.7</ele>
        <time>2026-04-25T10:12:21Z</time>
      </trkpt>
      <trkpt lat="51.386647" lon="21.158980166666666">
        <ele>196.7</ele>
        <time>2026-04-25T10:12:21Z</time>
      </trkpt>
      <trkpt lat="51.386647" lon="21.158980166666666">
        <ele>196.7</ele>
        <time>2026-04-25T10:12:21Z</time>
      </trkpt>
      <trkpt lat="51.386647" lon="21.158980166666666">
        <ele>196.7</ele>
        <time>2026-04-25T10:12:21Z</time>
      </trkpt>
      <trkpt lat="51.386647" lon="21.158980166666666">
        <ele>196.7</ele>
        <time>2026-04-25T10:12:21Z</time>
      </trkpt>
      <trkpt lat="51.386647" lon="21.158980166666666">
        <ele>196.7</ele>
        <time>2026-04-25T10:12:21Z</time>
      </trkpt>
      <trkpt lat="51.38664683333333" lon="21.158979333333335">
        <ele>196.7</ele>
        <time>2026-04-25T10:12:21Z</time>
      </trkpt>
      <trkpt lat="51.38664683333333" lon="21.158979333333335">
        <ele>196.7</ele>
        <time>2026-04-25T10:12:21Z</time>
      </trkpt>
      <trkpt lat="51.38664683333333" lon="21.158979333333335">
        <ele>196.7</ele>
        <time>2026-04-25T10:12:21Z</time>
      </trkpt>
      <trkpt lat="51.38664683333333" lon="21.158979333333335">
        <ele>196.7</ele>
        <time>2026-04-25T10:12:21Z</time>
      </trkpt>
      <trkpt lat="51.38664683333333" lon="21.158979333333335">
        <ele>196.7</ele>
        <time>2026-04-25T10:12:21Z</time>
      </trkpt>
      <trkpt lat="51.38664683333333" lon="21.158979333333335">
        <ele>196.7</ele>
        <time>2026-04-25T10:12:21Z</time>
      </trkpt>
      <trkpt lat="51.38664683333333" lon="21.158979333333335">
        <ele>196.7</ele>
        <time>2026-04-25T10:12:21Z</time>
      </trkpt>
      <trkpt lat="51.38664683333333" lon="21.158979333333335">
        <ele>196.7</ele>
        <time>2026-04-25T10:12:21Z</time>
      </trkpt>
      <trkpt lat="51.38664683333333" lon="21.158979333333335">
        <ele>196.7</ele>
        <time>2026-04-25T10:12:21Z</time>
      </trkpt>
      <trkpt lat="51.38664683333333" lon="21.158979333333335">
        <ele>196.7</ele>
        <time>2026-04-25T10:12:21Z</time>
      </trkpt>
      <trkpt lat="51.38664683333333" lon="21.158979333333335">
        <ele>196.7</ele>
        <time>2026-04-25T10:12:21Z</time>
      </trkpt>
      <trkpt lat="51.38664683333333" lon="21.158979333333335">
        <ele>196.7</ele>
        <time>2026-04-25T10:12:21Z</time>
      </trkpt>
      <trkpt lat="51.38664683333333" lon="21.158979333333335">
        <ele>196.7</ele>
        <time>2026-04-25T10:12:21Z</time>
      </trkpt>
      <trkpt lat="51.38664683333333" lon="21.158979333333335">
        <ele>196.7</ele>
        <time>2026-04-25T10:12:21Z</time>
      </trkpt>
      <trkpt lat="51.38664683333333" lon="21.158979333333335">
        <ele>196.7</ele>
        <time>2026-04-25T10:12:21Z</time>
      </trkpt>
      <trkpt lat="51.38664683333333" lon="21.158979333333335">
        <ele>196.7</ele>
        <time>2026-04-25T10:12:21Z</time>
      </trkpt>
      <trkpt lat="51.38664683333333" lon="21.158979333333335">
        <ele>196.7</ele>
        <time>2026-04-25T10:12:21Z</time>
      </trkpt>
      <trkpt lat="51.38664683333333" lon="21.158979333333335">
        <ele>196.7</ele>
        <time>2026-04-25T10:12:21Z</time>
      </trkpt>
      <trkpt lat="51.38664683333333" lon="21.158979333333335">
        <ele>196.7</ele>
        <time>2026-04-25T10:12:21Z</time>
      </trkpt>
      <trkpt lat="51.38664683333333" lon="21.158979333333335">
        <ele>196.7</ele>
        <time>2026-04-25T10:12:21Z</time>
      </trkpt>
      <trkpt lat="51.38664683333333" lon="21.158979333333335">
        <ele>196.7</ele>
        <time>2026-04-25T10:12:21Z</time>
      </trkpt>
      <trkpt lat="51.38664683333333" lon="21.158979333333335">
        <ele>196.7</ele>
        <time>2026-04-25T10:12:21Z</time>
      </trkpt>
      <trkpt lat="51.38664683333333" lon="21.158979333333335">
        <ele>196.7</ele>
        <time>2026-04-25T10:12:21Z</time>
      </trkpt>
      <trkpt lat="51.3866465" lon="21.1589785">
        <ele>196.7</ele>
        <time>2026-04-25T10:12:21Z</time>
      </trkpt>
      <trkpt lat="51.3866465" lon="21.1589785">
        <ele>196.7</ele>
        <time>2026-04-25T10:12:21Z</time>
      </trkpt>
      <trkpt lat="51.3866465" lon="21.1589785">
        <ele>196.6</ele>
        <time>2026-04-25T10:12:21Z</time>
      </trkpt>
      <trkpt lat="51.3866465" lon="21.1589785">
        <ele>196.6</ele>
        <time>2026-04-25T10:12:21Z</time>
      </trkpt>
      <trkpt lat="51.3866465" lon="21.1589785">
        <ele>196.6</ele>
        <time>2026-04-25T10:12:21Z</time>
      </trkpt>
      <trkpt lat="51.3866465" lon="21.1589785">
        <ele>196.6</ele>
        <time>2026-04-25T10:12:21Z</time>
      </trkpt>
      <trkpt lat="51.3866465" lon="21.1589785">
        <ele>196.6</ele>
        <time>2026-04-25T10:12:21Z</time>
      </trkpt>
      <trkpt lat="51.3866465" lon="21.1589785">
        <ele>196.6</ele>
        <time>2026-04-25T10:12:21Z</time>
      </trkpt>
      <trkpt lat="51.3866465" lon="21.1589785">
        <ele>196.6</ele>
        <time>2026-04-25T10:12:21Z</time>
      </trkpt>
      <trkpt lat="51.3866465" lon="21.1589785">
        <ele>196.6</ele>
        <time>2026-04-25T10:12:21Z</time>
      </trkpt>
      <trkpt lat="51.3866465" lon="21.1589785">
        <ele>196.6</ele>
        <time>2026-04-25T10:12:21Z</time>
      </trkpt>
      <trkpt lat="51.3866465" lon="21.1589785">
        <ele>196.6</ele>
        <time>2026-04-25T10:12:21Z</time>
      </trkpt>
      <trkpt lat="51.3866465" lon="21.1589785">
        <ele>196.6</ele>
        <time>2026-04-25T10:12:21Z</time>
      </trkpt>
      <trkpt lat="51.3866465" lon="21.1589785">
        <ele>196.6</ele>
        <time>2026-04-25T10:12:21Z</time>
      </trkpt>
      <trkpt lat="51.3866465" lon="21.1589785">
        <ele>196.6</ele>
        <time>2026-04-25T10:12:21Z</time>
      </trkpt>
      <trkpt lat="51.3866465" lon="21.1589785">
        <ele>196.6</ele>
        <time>2026-04-25T10:12:21Z</time>
      </trkpt>
      <trkpt lat="51.3866465" lon="21.1589785">
        <ele>196.6</ele>
        <time>2026-04-25T10:12:21Z</time>
      </trkpt>
      <trkpt lat="51.3866465" lon="21.1589785">
        <ele>196.6</ele>
        <time>2026-04-25T10:12:21Z</time>
      </trkpt>
      <trkpt lat="51.3866465" lon="21.1589785">
        <ele>196.6</ele>
        <time>2026-04-25T10:12:21Z</time>
      </trkpt>
      <trkpt lat="51.3866465" lon="21.1589785">
        <ele>196.6</ele>
        <time>2026-04-25T10:12:21Z</time>
      </trkpt>
      <trkpt lat="51.3866465" lon="21.1589785">
        <ele>196.6</ele>
        <time>2026-04-25T10:12:21Z</time>
      </trkpt>
      <trkpt lat="51.3866465" lon="21.1589785">
        <ele>196.6</ele>
        <time>2026-04-25T10:12:21Z</time>
      </trkpt>
      <trkpt lat="51.38664633333333" lon="21.158977333333333">
        <ele>196.6</ele>
        <time>2026-04-25T10:12:21Z</time>
      </trkpt>
      <trkpt lat="51.38664633333333" lon="21.158977333333333">
        <ele>196.6</ele>
        <time>2026-04-25T10:12:21Z</time>
      </trkpt>
      <trkpt lat="51.38664633333333" lon="21.158977333333333">
        <ele>196.6</ele>
        <time>2026-04-25T10:12:21Z</time>
      </trkpt>
      <trkpt lat="51.38664633333333" lon="21.158977333333333">
        <ele>196.6</ele>
        <time>2026-04-25T10:12:21Z</time>
      </trkpt>
      <trkpt lat="51.38664633333333" lon="21.158977333333333">
        <ele>196.6</ele>
        <time>2026-04-25T10:12:21Z</time>
      </trkpt>
      <trkpt lat="51.38664633333333" lon="21.158977333333333">
        <ele>196.6</ele>
        <time>2026-04-25T10:12:21Z</time>
      </trkpt>
      <trkpt lat="51.38664633333333" lon="21.158977333333333">
        <ele>196.6</ele>
        <time>2026-04-25T10:12:21Z</time>
      </trkpt>
      <trkpt lat="51.38664633333333" lon="21.158977333333333">
        <ele>196.6</ele>
        <time>2026-04-25T10:12:21Z</time>
      </trkpt>
      <trkpt lat="51.38664633333333" lon="21.158977333333333">
        <ele>196.6</ele>
        <time>2026-04-25T10:12:21Z</time>
      </trkpt>
      <trkpt lat="51.38664633333333" lon="21.158977333333333">
        <ele>196.6</ele>
        <time>2026-04-25T10:12:21Z</time>
      </trkpt>
      <trkpt lat="51.38664633333333" lon="21.158977333333333">
        <ele>196.6</ele>
        <time>2026-04-25T10:12:21Z</time>
      </trkpt>
      <trkpt lat="51.38664633333333" lon="21.158977333333333">
        <ele>196.6</ele>
        <time>2026-04-25T10:12:21Z</time>
      </trkpt>
      <trkpt lat="51.38664633333333" lon="21.158977333333333">
        <ele>196.6</ele>
        <time>2026-04-25T10:12:21Z</time>
      </trkpt>
      <trkpt lat="51.38664633333333" lon="21.158977333333333">
        <ele>196.6</ele>
        <time>2026-04-25T10:12:21Z</time>
      </trkpt>
      <trkpt lat="51.38664633333333" lon="21.158977333333333">
        <ele>196.6</ele>
        <time>2026-04-25T10:12:21Z</time>
      </trkpt>
      <trkpt lat="51.38664633333333" lon="21.158977333333333">
        <ele>196.6</ele>
        <time>2026-04-25T10:12:21Z</time>
      </trkpt>
      <trkpt lat="51.38664633333333" lon="21.158977333333333">
        <ele>196.6</ele>
        <time>2026-04-25T10:12:21Z</time>
      </trkpt>
      <trkpt lat="51.38664633333333" lon="21.158977333333333">
        <ele>196.6</ele>
        <time>2026-04-25T10:12:21Z</time>
      </trkpt>
      <trkpt lat="51.38664633333333" lon="21.158977333333333">
        <ele>196.6</ele>
        <time>2026-04-25T10:12:21Z</time>
      </trkpt>
      <trkpt lat="51.38664633333333" lon="21.158977333333333">
        <ele>196.6</ele>
        <time>2026-04-25T10:12:21Z</time>
      </trkpt>
      <trkpt lat="51.38664633333333" lon="21.158977333333333">
        <ele>196.6</ele>
        <time>2026-04-25T10:12:21Z</time>
      </trkpt>
      <trkpt lat="51.38664633333333" lon="21.158977333333333">
        <ele>196.6</ele>
        <time>2026-04-25T10:12:21Z</time>
      </trkpt>
      <trkpt lat="51.38664633333333" lon="21.158977333333333">
        <ele>196.6</ele>
        <time>2026-04-25T10:12:21Z</time>
      </trkpt>
      <trkpt lat="51.386646166666665" lon="21.15897633333333">
        <ele>196.6</ele>
        <time>2026-04-25T10:12:21Z</time>
      </trkpt>
      <trkpt lat="51.386646166666665" lon="21.15897633333333">
        <ele>196.6</ele>
        <time>2026-04-25T10:12:21Z</time>
      </trkpt>
      <trkpt lat="51.386646166666665" lon="21.15897633333333">
        <ele>196.5</ele>
        <time>2026-04-25T10:12:21Z</time>
      </trkpt>
      <trkpt lat="51.386646166666665" lon="21.15897633333333">
        <ele>196.5</ele>
        <time>2026-04-25T10:12:21Z</time>
      </trkpt>
      <trkpt lat="51.386646166666665" lon="21.15897633333333">
        <ele>196.5</ele>
        <time>2026-04-25T10:12:21Z</time>
      </trkpt>
      <trkpt lat="51.386646166666665" lon="21.15897633333333">
        <ele>196.5</ele>
        <time>2026-04-25T10:12:21Z</time>
      </trkpt>
      <trkpt lat="51.386646166666665" lon="21.15897633333333">
        <ele>196.5</ele>
        <time>2026-04-25T10:12:21Z</time>
      </trkpt>
      <trkpt lat="51.386646166666665" lon="21.15897633333333">
        <ele>196.5</ele>
        <time>2026-04-25T10:12:21Z</time>
      </trkpt>
      <trkpt lat="51.386646166666665" lon="21.15897633333333">
        <ele>196.5</ele>
        <time>2026-04-25T10:12:21Z</time>
      </trkpt>
      <trkpt lat="51.386646166666665" lon="21.15897633333333">
        <ele>196.5</ele>
        <time>2026-04-25T10:12:21Z</time>
      </trkpt>
      <trkpt lat="51.386646166666665" lon="21.15897633333333">
        <ele>196.5</ele>
        <time>2026-04-25T10:12:21Z</time>
      </trkpt>
      <trkpt lat="51.386646166666665" lon="21.15897633333333">
        <ele>196.5</ele>
        <time>2026-04-25T10:12:21Z</time>
      </trkpt>
      <trkpt lat="51.386646166666665" lon="21.15897633333333">
        <ele>196.5</ele>
        <time>2026-04-25T10:12:21Z</time>
      </trkpt>
      <trkpt lat="51.386646166666665" lon="21.15897633333333">
        <ele>196.5</ele>
        <time>2026-04-25T10:12:21Z</time>
      </trkpt>
      <trkpt lat="51.386646166666665" lon="21.15897633333333">
        <ele>196.5</ele>
        <time>2026-04-25T10:12:21Z</time>
      </trkpt>
      <trkpt lat="51.386646166666665" lon="21.15897633333333">
        <ele>196.5</ele>
        <time>2026-04-25T10:12:21Z</time>
      </trkpt>
      <trkpt lat="51.386646166666665" lon="21.15897633333333">
        <ele>196.5</ele>
        <time>2026-04-25T10:12:21Z</time>
      </trkpt>
      <trkpt lat="51.386646166666665" lon="21.15897633333333">
        <ele>196.5</ele>
        <time>2026-04-25T10:12:21Z</time>
      </trkpt>
      <trkpt lat="51.386646166666665" lon="21.15897633333333">
        <ele>196.5</ele>
        <time>2026-04-25T10:12:21Z</time>
      </trkpt>
      <trkpt lat="51.386646166666665" lon="21.15897633333333">
        <ele>196.5</ele>
        <time>2026-04-25T10:12:21Z</time>
      </trkpt>
      <trkpt lat="51.386646166666665" lon="21.15897633333333">
        <ele>196.5</ele>
        <time>2026-04-25T10:12:21Z</time>
      </trkpt>
      <trkpt lat="51.386646166666665" lon="21.15897633333333">
        <ele>196.5</ele>
        <time>2026-04-25T10:12:21Z</time>
      </trkpt>
      <trkpt lat="51.386646166666665" lon="21.15897633333333">
        <ele>196.5</ele>
        <time>2026-04-25T10:12:21Z</time>
      </trkpt>
      <trkpt lat="51.38664583333333" lon="21.158975333333334">
        <ele>196.5</ele>
        <time>2026-04-25T10:12:21Z</time>
      </trkpt>
      <trkpt lat="51.38664583333333" lon="21.158975333333334">
        <ele>196.5</ele>
        <time>2026-04-25T10:12:21Z</time>
      </trkpt>
      <trkpt lat="51.38664583333333" lon="21.158975333333334">
        <ele>196.5</ele>
        <time>2026-04-25T10:12:21Z</time>
      </trkpt>
      <trkpt lat="51.38664583333333" lon="21.158975333333334">
        <ele>196.5</ele>
        <time>2026-04-25T10:12:21Z</time>
      </trkpt>
      <trkpt lat="51.38664583333333" lon="21.158975333333334">
        <ele>196.5</ele>
        <time>2026-04-25T10:12:21Z</time>
      </trkpt>
      <trkpt lat="51.38664583333333" lon="21.158975333333334">
        <ele>196.5</ele>
        <time>2026-04-25T10:12:21Z</time>
      </trkpt>
      <trkpt lat="51.38664583333333" lon="21.158975333333334">
        <ele>196.5</ele>
        <time>2026-04-25T10:12:21Z</time>
      </trkpt>
      <trkpt lat="51.38664583333333" lon="21.158975333333334">
        <ele>196.5</ele>
        <time>2026-04-25T10:12:21Z</time>
      </trkpt>
      <trkpt lat="51.38664583333333" lon="21.158975333333334">
        <ele>196.5</ele>
        <time>2026-04-25T10:12:21Z</time>
      </trkpt>
      <trkpt lat="51.38664583333333" lon="21.158975333333334">
        <ele>196.5</ele>
        <time>2026-04-25T10:12:21Z</time>
      </trkpt>
      <trkpt lat="51.38664583333333" lon="21.158975333333334">
        <ele>196.5</ele>
        <time>2026-04-25T10:12:21Z</time>
      </trkpt>
      <trkpt lat="51.38664583333333" lon="21.158975333333334">
        <ele>196.5</ele>
        <time>2026-04-25T10:12:21Z</time>
      </trkpt>
      <trkpt lat="51.38664583333333" lon="21.158975333333334">
        <ele>196.5</ele>
        <time>2026-04-25T10:12:21Z</time>
      </trkpt>
      <trkpt lat="51.38664583333333" lon="21.158975333333334">
        <ele>196.5</ele>
        <time>2026-04-25T10:12:21Z</time>
      </trkpt>
      <trkpt lat="51.38664583333333" lon="21.158975333333334">
        <ele>196.5</ele>
        <time>2026-04-25T10:12:21Z</time>
      </trkpt>
      <trkpt lat="51.38664583333333" lon="21.158975333333334">
        <ele>196.5</ele>
        <time>2026-04-25T10:12:21Z</time>
      </trkpt>
      <trkpt lat="51.38664583333333" lon="21.158975333333334">
        <ele>196.5</ele>
        <time>2026-04-25T10:12:21Z</time>
      </trkpt>
      <trkpt lat="51.38664583333333" lon="21.158975333333334">
        <ele>196.5</ele>
        <time>2026-04-25T10:12:21Z</time>
      </trkpt>
      <trkpt lat="51.38664583333333" lon="21.158975333333334">
        <ele>196.5</ele>
        <time>2026-04-25T10:12:21Z</time>
      </trkpt>
      <trkpt lat="51.38664583333333" lon="21.158975333333334">
        <ele>196.5</ele>
        <time>2026-04-25T10:12:21Z</time>
      </trkpt>
      <trkpt lat="51.38664583333333" lon="21.158975333333334">
        <ele>196.5</ele>
        <time>2026-04-25T10:12:21Z</time>
      </trkpt>
      <trkpt lat="51.38664583333333" lon="21.158975333333334">
        <ele>196.5</ele>
        <time>2026-04-25T10:12:21Z</time>
      </trkpt>
      <trkpt lat="51.38664583333333" lon="21.158975333333334">
        <ele>196.5</ele>
        <time>2026-04-25T10:12:21Z</time>
      </trkpt>
      <trkpt lat="51.38664583333333" lon="21.158975333333334">
        <ele>196.5</ele>
        <time>2026-04-25T10:12:21Z</time>
      </trkpt>
      <trkpt lat="51.3866455" lon="21.158974166666667">
        <ele>196.5</ele>
        <time>2026-04-25T10:12:21Z</time>
      </trkpt>
      <trkpt lat="51.3866455" lon="21.158974166666667">
        <ele>196.5</ele>
        <time>2026-04-25T10:12:21Z</time>
      </trkpt>
      <trkpt lat="51.3866455" lon="21.158974166666667">
        <ele>196.4</ele>
        <time>2026-04-25T10:12:21Z</time>
      </trkpt>
      <trkpt lat="51.3866455" lon="21.158974166666667">
        <ele>196.4</ele>
        <time>2026-04-25T10:12:21Z</time>
      </trkpt>
      <trkpt lat="51.3866455" lon="21.158974166666667">
        <ele>196.4</ele>
        <time>2026-04-25T10:12:21Z</time>
      </trkpt>
      <trkpt lat="51.3866455" lon="21.158974166666667">
        <ele>196.4</ele>
        <time>2026-04-25T10:12:21Z</time>
      </trkpt>
      <trkpt lat="51.3866455" lon="21.158974166666667">
        <ele>196.4</ele>
        <time>2026-04-25T10:12:21Z</time>
      </trkpt>
      <trkpt lat="51.3866455" lon="21.158974166666667">
        <ele>196.4</ele>
        <time>2026-04-25T10:12:21Z</time>
      </trkpt>
      <trkpt lat="51.3866455" lon="21.158974166666667">
        <ele>196.4</ele>
        <time>2026-04-25T10:12:21Z</time>
      </trkpt>
      <trkpt lat="51.3866455" lon="21.158974166666667">
        <ele>196.4</ele>
        <time>2026-04-25T10:12:21Z</time>
      </trkpt>
      <trkpt lat="51.3866455" lon="21.158974166666667">
        <ele>196.4</ele>
        <time>2026-04-25T10:12:21Z</time>
      </trkpt>
      <trkpt lat="51.3866455" lon="21.158974166666667">
        <ele>196.4</ele>
        <time>2026-04-25T10:12:21Z</time>
      </trkpt>
      <trkpt lat="51.3866455" lon="21.158974166666667">
        <ele>196.4</ele>
        <time>2026-04-25T10:12:21Z</time>
      </trkpt>
      <trkpt lat="51.3866455" lon="21.158974166666667">
        <ele>196.4</ele>
        <time>2026-04-25T10:12:21Z</time>
      </trkpt>
      <trkpt lat="51.3866455" lon="21.158974166666667">
        <ele>196.4</ele>
        <time>2026-04-25T10:12:21Z</time>
      </trkpt>
      <trkpt lat="51.3866455" lon="21.158974166666667">
        <ele>196.4</ele>
        <time>2026-04-25T10:12:21Z</time>
      </trkpt>
      <trkpt lat="51.3866455" lon="21.158974166666667">
        <ele>196.4</ele>
        <time>2026-04-25T10:12:21Z</time>
      </trkpt>
      <trkpt lat="51.3866455" lon="21.158974166666667">
        <ele>196.4</ele>
        <time>2026-04-25T10:12:21Z</time>
      </trkpt>
      <trkpt lat="51.3866455" lon="21.158974166666667">
        <ele>196.4</ele>
        <time>2026-04-25T10:12:21Z</time>
      </trkpt>
      <trkpt lat="51.3866455" lon="21.158974166666667">
        <ele>196.4</ele>
        <time>2026-04-25T10:12:21Z</time>
      </trkpt>
      <trkpt lat="51.3866455" lon="21.158974166666667">
        <ele>196.4</ele>
        <time>2026-04-25T10:12:21Z</time>
      </trkpt>
      <trkpt lat="51.3866455" lon="21.158974166666667">
        <ele>196.4</ele>
        <time>2026-04-25T10:12:21Z</time>
      </trkpt>
      <trkpt lat="51.3866455" lon="21.158974166666667">
        <ele>196.4</ele>
        <time>2026-04-25T10:12:21Z</time>
      </trkpt>
      <trkpt lat="51.3866455" lon="21.158974166666667">
        <ele>196.4</ele>
        <time>2026-04-25T10:12:21Z</time>
      </trkpt>
      <trkpt lat="51.38664516666667" lon="21.158973166666666">
        <ele>196.4</ele>
        <time>2026-04-25T10:12:21Z</time>
      </trkpt>
      <trkpt lat="51.38664516666667" lon="21.158973166666666">
        <ele>196.4</ele>
        <time>2026-04-25T10:12:21Z</time>
      </trkpt>
      <trkpt lat="51.38664516666667" lon="21.158973166666666">
        <ele>196.4</ele>
        <time>2026-04-25T10:12:21Z</time>
      </trkpt>
      <trkpt lat="51.38664516666667" lon="21.158973166666666">
        <ele>196.4</ele>
        <time>2026-04-25T10:12:21Z</time>
      </trkpt>
      <trkpt lat="51.38664516666667" lon="21.158973166666666">
        <ele>196.4</ele>
        <time>2026-04-25T10:12:21Z</time>
      </trkpt>
      <trkpt lat="51.38664516666667" lon="21.158973166666666">
        <ele>196.4</ele>
        <time>2026-04-25T10:12:21Z</time>
      </trkpt>
      <trkpt lat="51.38664516666667" lon="21.158973166666666">
        <ele>196.4</ele>
        <time>2026-04-25T10:12:21Z</time>
      </trkpt>
      <trkpt lat="51.38664516666667" lon="21.158973166666666">
        <ele>196.4</ele>
        <time>2026-04-25T10:12:21Z</time>
      </trkpt>
      <trkpt lat="51.38664516666667" lon="21.158973166666666">
        <ele>196.4</ele>
        <time>2026-04-25T10:12:21Z</time>
      </trkpt>
      <trkpt lat="51.38664516666667" lon="21.158973166666666">
        <ele>196.4</ele>
        <time>2026-04-25T10:12:21Z</time>
      </trkpt>
      <trkpt lat="51.38664516666667" lon="21.158973166666666">
        <ele>196.4</ele>
        <time>2026-04-25T10:12:21Z</time>
      </trkpt>
      <trkpt lat="51.38664516666667" lon="21.158973166666666">
        <ele>196.4</ele>
        <time>2026-04-25T10:12:21Z</time>
      </trkpt>
      <trkpt lat="51.38664516666667" lon="21.158973166666666">
        <ele>196.4</ele>
        <time>2026-04-25T10:12:21Z</time>
      </trkpt>
      <trkpt lat="51.38664516666667" lon="21.158973166666666">
        <ele>196.4</ele>
        <time>2026-04-25T10:12:21Z</time>
      </trkpt>
      <trkpt lat="51.38664516666667" lon="21.158973166666666">
        <ele>196.4</ele>
        <time>2026-04-25T10:12:21Z</time>
      </trkpt>
      <trkpt lat="51.38664516666667" lon="21.158973166666666">
        <ele>196.4</ele>
        <time>2026-04-25T10:12:21Z</time>
      </trkpt>
      <trkpt lat="51.38664516666667" lon="21.158973166666666">
        <ele>196.4</ele>
        <time>2026-04-25T10:12:21Z</time>
      </trkpt>
      <trkpt lat="51.38664516666667" lon="21.158973166666666">
        <ele>196.4</ele>
        <time>2026-04-25T10:12:21Z</time>
      </trkpt>
      <trkpt lat="51.38664516666667" lon="21.158973166666666">
        <ele>196.4</ele>
        <time>2026-04-25T10:12:21Z</time>
      </trkpt>
      <trkpt lat="51.38664516666667" lon="21.158973166666666">
        <ele>196.4</ele>
        <time>2026-04-25T10:12:21Z</time>
      </trkpt>
      <trkpt lat="51.38664516666667" lon="21.158973166666666">
        <ele>196.4</ele>
        <time>2026-04-25T10:12:21Z</time>
      </trkpt>
      <trkpt lat="51.38664516666667" lon="21.158973166666666">
        <ele>196.4</ele>
        <time>2026-04-25T10:12:21Z</time>
      </trkpt>
      <trkpt lat="51.38664516666667" lon="21.158973166666666">
        <ele>196.4</ele>
        <time>2026-04-25T10:12:21Z</time>
      </trkpt>
      <trkpt lat="51.38664516666667" lon="21.158973166666666">
        <ele>196.4</ele>
        <time>2026-04-25T10:12:21Z</time>
      </trkpt>
      <trkpt lat="51.386644833333335" lon="21.15897216666667">
        <ele>196.4</ele>
        <time>2026-04-25T10:12:21Z</time>
      </trkpt>
      <trkpt lat="51.386644833333335" lon="21.15897216666667">
        <ele>196.4</ele>
        <time>2026-04-25T10:12:21Z</time>
      </trkpt>
      <trkpt lat="51.386644833333335" lon="21.15897216666667">
        <ele>196.4</ele>
        <time>2026-04-25T10:12:21Z</time>
      </trkpt>
      <trkpt lat="51.386644833333335" lon="21.15897216666667">
        <ele>196.4</ele>
        <time>2026-04-25T10:12:21Z</time>
      </trkpt>
      <trkpt lat="51.386644833333335" lon="21.15897216666667">
        <ele>196.4</ele>
        <time>2026-04-25T10:12:21Z</time>
      </trkpt>
      <trkpt lat="51.386644833333335" lon="21.15897216666667">
        <ele>196.4</ele>
        <time>2026-04-25T10:12:21Z</time>
      </trkpt>
      <trkpt lat="51.386644833333335" lon="21.15897216666667">
        <ele>196.4</ele>
        <time>2026-04-25T10:12:21Z</time>
      </trkpt>
      <trkpt lat="51.386644833333335" lon="21.15897216666667">
        <ele>196.4</ele>
        <time>2026-04-25T10:12:21Z</time>
      </trkpt>
      <trkpt lat="51.386644833333335" lon="21.15897216666667">
        <ele>196.4</ele>
        <time>2026-04-25T10:12:21Z</time>
      </trkpt>
      <trkpt lat="51.386644833333335" lon="21.15897216666667">
        <ele>196.4</ele>
        <time>2026-04-25T10:12:21Z</time>
      </trkpt>
      <trkpt lat="51.386644833333335" lon="21.15897216666667">
        <ele>196.4</ele>
        <time>2026-04-25T10:12:21Z</time>
      </trkpt>
      <trkpt lat="51.386644833333335" lon="21.15897216666667">
        <ele>196.4</ele>
        <time>2026-04-25T10:12:21Z</time>
      </trkpt>
      <trkpt lat="51.386644833333335" lon="21.15897216666667">
        <ele>196.4</ele>
        <time>2026-04-25T10:12:21Z</time>
      </trkpt>
      <trkpt lat="51.386644833333335" lon="21.15897216666667">
        <ele>196.4</ele>
        <time>2026-04-25T10:12:21Z</time>
      </trkpt>
      <trkpt lat="51.386644833333335" lon="21.15897216666667">
        <ele>196.4</ele>
        <time>2026-04-25T10:12:21Z</time>
      </trkpt>
      <trkpt lat="51.386644833333335" lon="21.15897216666667">
        <ele>196.4</ele>
        <time>2026-04-25T10:12:21Z</time>
      </trkpt>
      <trkpt lat="51.386644833333335" lon="21.15897216666667">
        <ele>196.4</ele>
        <time>2026-04-25T10:12:21Z</time>
      </trkpt>
      <trkpt lat="51.386644833333335" lon="21.15897216666667">
        <ele>196.4</ele>
        <time>2026-04-25T10:12:21Z</time>
      </trkpt>
      <trkpt lat="51.386644833333335" lon="21.15897216666667">
        <ele>196.4</ele>
        <time>2026-04-25T10:12:21Z</time>
      </trkpt>
      <trkpt lat="51.386644833333335" lon="21.15897216666667">
        <ele>196.4</ele>
        <time>2026-04-25T10:12:21Z</time>
      </trkpt>
      <trkpt lat="51.386644833333335" lon="21.15897216666667">
        <ele>196.4</ele>
        <time>2026-04-25T10:12:21Z</time>
      </trkpt>
      <trkpt lat="51.386644833333335" lon="21.15897216666667">
        <ele>196.4</ele>
        <time>2026-04-25T10:12:21Z</time>
      </trkpt>
      <trkpt lat="51.386644833333335" lon="21.15897216666667">
        <ele>196.4</ele>
        <time>2026-04-25T10:12:21Z</time>
      </trkpt>
      <trkpt lat="51.386644833333335" lon="21.15897216666667">
        <ele>196.4</ele>
        <time>2026-04-25T10:12:21Z</time>
      </trkpt>
      <trkpt lat="51.38664466666667" lon="21.158971166666667">
        <ele>196.4</ele>
        <time>2026-04-25T10:12:21Z</time>
      </trkpt>
      <trkpt lat="51.38664466666667" lon="21.158971166666667">
        <ele>196.4</ele>
        <time>2026-04-25T10:12:21Z</time>
      </trkpt>
      <trkpt lat="51.38664466666667" lon="21.158971166666667">
        <ele>196.4</ele>
        <time>2026-04-25T10:12:21Z</time>
      </trkpt>
      <trkpt lat="51.38664466666667" lon="21.158971166666667">
        <ele>196.4</ele>
        <time>2026-04-25T10:12:21Z</time>
      </trkpt>
      <trkpt lat="51.38664466666667" lon="21.158971166666667">
        <ele>196.4</ele>
        <time>2026-04-25T10:12:21Z</time>
      </trkpt>
      <trkpt lat="51.38664466666667" lon="21.158971166666667">
        <ele>196.4</ele>
        <time>2026-04-25T10:12:21Z</time>
      </trkpt>
      <trkpt lat="51.38664466666667" lon="21.158971166666667">
        <ele>196.4</ele>
        <time>2026-04-25T10:12:21Z</time>
      </trkpt>
      <trkpt lat="51.38664466666667" lon="21.158971166666667">
        <ele>196.4</ele>
        <time>2026-04-25T10:12:21Z</time>
      </trkpt>
      <trkpt lat="51.38664466666667" lon="21.158971166666667">
        <ele>196.4</ele>
        <time>2026-04-25T10:12:21Z</time>
      </trkpt>
      <trkpt lat="51.38664466666667" lon="21.158971166666667">
        <ele>196.4</ele>
        <time>2026-04-25T10:12:21Z</time>
      </trkpt>
      <trkpt lat="51.3866445" lon="21.158969666666668">
        <ele>196.4</ele>
        <time>2026-04-25T10:12:21Z</time>
      </trkpt>
      <trkpt lat="51.3866445" lon="21.158969666666668">
        <ele>196.4</ele>
        <time>2026-04-25T10:12:21Z</time>
      </trkpt>
      <trkpt lat="51.3866445" lon="21.158969666666668">
        <ele>196.4</ele>
        <time>2026-04-25T10:12:21Z</time>
      </trkpt>
      <trkpt lat="51.3866445" lon="21.158969666666668">
        <ele>196.4</ele>
        <time>2026-04-25T10:12:21Z</time>
      </trkpt>
      <trkpt lat="51.3866445" lon="21.158969666666668">
        <ele>196.4</ele>
        <time>2026-04-25T10:12:21Z</time>
      </trkpt>
      <trkpt lat="51.3866445" lon="21.158969666666668">
        <ele>196.4</ele>
        <time>2026-04-25T10:12:21Z</time>
      </trkpt>
      <trkpt lat="51.3866445" lon="21.158969666666668">
        <ele>196.4</ele>
        <time>2026-04-25T10:12:21Z</time>
      </trkpt>
      <trkpt lat="51.3866445" lon="21.158969666666668">
        <ele>196.4</ele>
        <time>2026-04-25T10:12:21Z</time>
      </trkpt>
      <trkpt lat="51.3866445" lon="21.158969666666668">
        <ele>196.4</ele>
        <time>2026-04-25T10:12:21Z</time>
      </trkpt>
      <trkpt lat="51.3866445" lon="21.158969666666668">
        <ele>196.4</ele>
        <time>2026-04-25T10:12:21Z</time>
      </trkpt>
      <trkpt lat="51.3866445" lon="21.158969666666668">
        <ele>196.4</ele>
        <time>2026-04-25T10:12:21Z</time>
      </trkpt>
      <trkpt lat="51.3866445" lon="21.158969666666668">
        <ele>196.4</ele>
        <time>2026-04-25T10:12:21Z</time>
      </trkpt>
      <trkpt lat="51.3866445" lon="21.158969666666668">
        <ele>196.4</ele>
        <time>2026-04-25T10:12:21Z</time>
      </trkpt>
      <trkpt lat="51.3866445" lon="21.158969666666668">
        <ele>196.4</ele>
        <time>2026-04-25T10:12:21Z</time>
      </trkpt>
      <trkpt lat="51.3866445" lon="21.158969666666668">
        <ele>196.4</ele>
        <time>2026-04-25T10:12:21Z</time>
      </trkpt>
      <trkpt lat="51.3866445" lon="21.158969666666668">
        <ele>196.4</ele>
        <time>2026-04-25T10:12:21Z</time>
      </trkpt>
      <trkpt lat="51.3866445" lon="21.158969666666668">
        <ele>196.4</ele>
        <time>2026-04-25T10:12:21Z</time>
      </trkpt>
      <trkpt lat="51.3866445" lon="21.158969666666668">
        <ele>196.4</ele>
        <time>2026-04-25T10:12:21Z</time>
      </trkpt>
      <trkpt lat="51.3866445" lon="21.158969666666668">
        <ele>196.4</ele>
        <time>2026-04-25T10:12:21Z</time>
      </trkpt>
      <trkpt lat="51.3866445" lon="21.158969666666668">
        <ele>196.4</ele>
        <time>2026-04-25T10:12:21Z</time>
      </trkpt>
      <trkpt lat="51.3866445" lon="21.158969666666668">
        <ele>196.4</ele>
        <time>2026-04-25T10:12:21Z</time>
      </trkpt>
      <trkpt lat="51.3866445" lon="21.158969666666668">
        <ele>196.4</ele>
        <time>2026-04-25T10:12:21Z</time>
      </trkpt>
      <trkpt lat="51.3866445" lon="21.158969666666668">
        <ele>196.4</ele>
        <time>2026-04-25T10:12:21Z</time>
      </trkpt>
      <trkpt lat="51.3866445" lon="21.158969666666668">
        <ele>196.4</ele>
        <time>2026-04-25T10:12:21Z</time>
      </trkpt>
      <trkpt lat="51.38664433333334" lon="21.158968333333334">
        <ele>196.4</ele>
        <time>2026-04-25T10:12:21Z</time>
      </trkpt>
      <trkpt lat="51.38664433333334" lon="21.158968333333334">
        <ele>196.4</ele>
        <time>2026-04-25T10:12:21Z</time>
      </trkpt>
      <trkpt lat="51.38664433333334" lon="21.158968333333334">
        <ele>196.4</ele>
        <time>2026-04-25T10:12:21Z</time>
      </trkpt>
      <trkpt lat="51.38664433333334" lon="21.158968333333334">
        <ele>196.4</ele>
        <time>2026-04-25T10:12:21Z</time>
      </trkpt>
      <trkpt lat="51.38664433333334" lon="21.158968333333334">
        <ele>196.4</ele>
        <time>2026-04-25T10:12:21Z</time>
      </trkpt>
      <trkpt lat="51.38664433333334" lon="21.158968333333334">
        <ele>196.4</ele>
        <time>2026-04-25T10:12:21Z</time>
      </trkpt>
      <trkpt lat="51.38664433333334" lon="21.158968333333334">
        <ele>196.4</ele>
        <time>2026-04-25T10:12:21Z</time>
      </trkpt>
      <trkpt lat="51.38664433333334" lon="21.158968333333334">
        <ele>196.4</ele>
        <time>2026-04-25T10:12:21Z</time>
      </trkpt>
      <trkpt lat="51.38664433333334" lon="21.158968333333334">
        <ele>196.4</ele>
        <time>2026-04-25T10:12:21Z</time>
      </trkpt>
      <trkpt lat="51.38664433333334" lon="21.158968333333334">
        <ele>196.4</ele>
        <time>2026-04-25T10:12:21Z</time>
      </trkpt>
      <trkpt lat="51.38664433333334" lon="21.158968333333334">
        <ele>196.4</ele>
        <time>2026-04-25T10:12:21Z</time>
      </trkpt>
      <trkpt lat="51.38664433333334" lon="21.158968333333334">
        <ele>196.4</ele>
        <time>2026-04-25T10:12:21Z</time>
      </trkpt>
      <trkpt lat="51.38664433333334" lon="21.158968333333334">
        <ele>196.4</ele>
        <time>2026-04-25T10:12:21Z</time>
      </trkpt>
      <trkpt lat="51.38664433333334" lon="21.158968333333334">
        <ele>196.4</ele>
        <time>2026-04-25T10:12:21Z</time>
      </trkpt>
      <trkpt lat="51.38664433333334" lon="21.158968333333334">
        <ele>196.4</ele>
        <time>2026-04-25T10:12:21Z</time>
      </trkpt>
      <trkpt lat="51.38664433333334" lon="21.158968333333334">
        <ele>196.4</ele>
        <time>2026-04-25T10:12:21Z</time>
      </trkpt>
      <trkpt lat="51.38664433333334" lon="21.158968333333334">
        <ele>196.4</ele>
        <time>2026-04-25T10:12:21Z</time>
      </trkpt>
      <trkpt lat="51.38664433333334" lon="21.158968333333334">
        <ele>196.4</ele>
        <time>2026-04-25T10:12:21Z</time>
      </trkpt>
      <trkpt lat="51.38664433333334" lon="21.158968333333334">
        <ele>196.4</ele>
        <time>2026-04-25T10:12:21Z</time>
      </trkpt>
      <trkpt lat="51.38664433333334" lon="21.158968333333334">
        <ele>196.4</ele>
        <time>2026-04-25T10:12:21Z</time>
      </trkpt>
      <trkpt lat="51.38664433333334" lon="21.158968333333334">
        <ele>196.4</ele>
        <time>2026-04-25T10:12:21Z</time>
      </trkpt>
      <trkpt lat="51.38664433333334" lon="21.158968333333334">
        <ele>196.4</ele>
        <time>2026-04-25T10:12:21Z</time>
      </trkpt>
      <trkpt lat="51.38664433333334" lon="21.158968333333334">
        <ele>196.4</ele>
        <time>2026-04-25T10:12:21Z</time>
      </trkpt>
    </trkseg>
  </trk>
</gpx>
